[{"OBJECT_NAME":"STARLINK-35179","OBJECT_ID":"2025-235J","EPOCH":"2026-03-09T22:04:41.204640","MEAN_MOTION":15.30191725,"ECCENTRICITY":9.863e-5,"INCLINATION":53.1562,"RA_OF_ASC_NODE":244.4205,"ARG_OF_PERICENTER":115.5797,"MEAN_ANOMALY":244.5306,"EPHEMERIS_TYPE":0,"CLASSIFICATION_TYPE":"U","NORAD_CAT_ID":66066,"ELEMENT_SET_NO":999,"REV_AT_EPOCH":2295,"BSTAR":0.0010349319,"MEAN_MOTION_DOT":0.0003041,"MEAN_MOTION_DDOT":0},{"OBJECT_NAME":"COSMOS 2535 DEB","OBJECT_ID":"2019-039M","EPOCH":"2026-03-08T03:25:35.903424","MEAN_MOTION":15.28322551,"ECCENTRICITY":0.0014917,"INCLINATION":97.5619,"RA_OF_ASC_NODE":139.2722,"ARG_OF_PERICENTER":329.0964,"MEAN_ANOMALY":30.9396,"EPHEMERIS_TYPE":0,"CLASSIFICATION_TYPE":"U","NORAD_CAT_ID":44641,"ELEMENT_SET_NO":999,"REV_AT_EPOCH":35167,"BSTAR":0.0011539757,"MEAN_MOTION_DOT":0.0003196,"MEAN_MOTION_DDOT":0}]
